METHANESAT              
1 59101U 24043D   26115.89179483  .00003083  00000+0  26684-3 0  9995
2 59101  97.8353 246.7087 0010724 179.5395 180.5839 14.97869136116826
GOSAT-GW (IBUKI GW)     
1 64694U 25141A   26114.53135333  .00000991  00000+0  18320-3 0  9997
2 64694  98.0549  52.7278 0001406  81.6853 278.4511 14.67554948 43973
GHGSAT-C1               
1 46278U 20061G   26115.94626994  .00037746  00000+0  34561-3 0  9998
2 46278  97.2109 199.4999 0001739 170.6125 189.5169 15.67705122315283
GHGSAT-C12              
1 64529U 25135B   26115.84988949  .00004161  00000+0  19673-3 0  9996
2 64529  97.4676 231.1523 0004955  14.6847 345.4531 15.19936102 46874
GHGSAT-C13              
1 64548U 25135W   26115.87885661  .00003750  00000+0  17425-3 0  9993
2 64548  97.4707 231.6705 0000592  53.4196 306.7093 15.20601237 46905
GHGSAT-C2               
1 47509U 21006DA  26115.69167304  .00006968  00000+0  19363-3 0  9998
2 47509  97.2204 163.8595 0005182  17.7499 342.3926 15.37164970291780
GHGSAT-C3               
1 52737U 22057F   26115.92412866  .00008038  00000+0  24938-3 0  9990
2 52737  97.6519 259.6720 0004871 314.6729  45.4116 15.33671725217524
GHGSAT-C4               
1 52746U 22057Q   26115.94416889  .00008302  00000+0  25758-3 0  9996
2 52746  97.6445 258.5772 0004933 295.7882  64.2850 15.33657130217534
GHGSAT-C5               
1 52744U 22057N   26115.96230515  .00008470  00000+0  26281-3 0  9994
2 52744  97.6610 261.2253 0005563 309.6140  50.4610 15.33648318217532
GHGSAT-C6               
1 56204U 23054AC  26115.90657997  .00017155  00000+0  29262-3 0  9990
2 56204  97.3074  24.9274 0004986 208.1820 151.9164 15.51399276170345
GHGSAT-C7               
1 56209U 23054AH  26115.81653539  .00011130  00000+0  20895-3 0  9993
2 56209  97.3040  23.5584 0006421 210.2104 149.8777 15.48764686170283
GHGSAT-C8               
1 56186U 23054J   26115.94170340  .00016232  00000+0  27683-3 0  9995
2 56186  97.3019  24.3245 0002305 241.6886 118.4134 15.51425579170332
SENTINEL-5P             
1 42969U 17064A   26115.83061100  .00000044  00000+0  41702-4 0  9997
2 42969  98.7940  58.3384 0001254  81.7214 278.4104 14.19509761442138
ENMAP                   
1 52159U 22033C   26115.79356488  .00000424  00000+0  70573-4 0  9992
2 52159  97.9782 198.7873 0001508  86.3951 273.7430 14.74941691218930
PRISMA                  
1 44072U 19015A   26115.94109934 -.00000068  00000+0 -18483-5 0  9991
2 44072  97.8652 191.4864 0001276  79.9936 280.1422 14.83657970384305
SENTINEL-2A             
1 40697U 15028A   26115.97693778 -.00000051  00000+0 -29016-5 0  9993
2 40697  98.5621 191.5744 0001297  86.6961 273.4370 14.30822486566264
SENTINEL-2B             
1 42063U 17013A   26115.89977183 -.00000047  00000+0 -13540-5 0  9994
2 42063  98.5647 191.4149 0001233  89.5030 270.6294 14.30813332477162
SENTINEL-2C             
1 60989U 24157A   26115.93479504  .00000108  00000+0  57667-4 0  9990
2 60989  98.5633 191.4613 0001478 103.0284 257.1064 14.30816335 85519
LANDSAT 8               
1 39084U 13008A   26115.90481305  .00000327  00000+0  82571-4 0  9999
2 39084  98.1852 186.8363 0001156  95.2329 264.9002 14.57105341690286
LANDSAT 9               
1 49260U 21088A   26115.93927229  .00000338  00000+0  85068-4 0  9992
2 49260  98.1873 186.9435 0001241 105.2488 254.8848 14.57120345243393
TANAGER-1               
1 60507U 24149AR  26115.81610594  .00014624  00000+0  31950-3 0  9994
2 60507  97.3468 209.7998 0007597 130.0750 230.1165 15.44257878 94951
